GOES 17                 
1 43226U 18022A   22014.19230019  .00000112  00000-0  00000+0 0  9997
2 43226   0.0611 239.0395 0000513  47.7671 118.8508  1.00270204 14247
